ONEWEB-0033             
1 45142U 20008M   24199.23637398  .00000695  00000+0  19545-2 0  9997
2 45142  87.8945 175.5080 0001809  83.2239 276.9094 13.10372354217444
ONEWEB-0035             
1 45143U 20008N   24198.88610536 -.00000626  00000+0 -18289-2 0  9993
2 45143  87.8951 175.5603 0001952  82.6189 277.5160 13.10372243216222
ONEWEB-0036             
1 45144U 20008P   24198.87621096 -.00000333  00000+0 -99140-3 0  9997
2 45144  87.8943 175.5183 0002207  88.6633 271.4748 13.10378923216654
ONEWEB-0040             
1 45147U 20008S   24199.23304670  .00000662  00000+0  18592-2 0  9991
2 45147  87.8956 175.4690 0002107  83.4170 276.7197 13.10374713216986
ONEWEB-0043             
1 45149U 20008U   24199.00563491  .00000714  00000+0  20103-2 0  9995
2 45149  87.8949 175.5191 0002554  88.7308 271.4111 13.10373963217260
ONEWEB-0044             
1 45150U 20008V   24199.18655508 -.00000465  00000+0 -13683-2 0  9997
2 45150  87.8946 175.4786 0002375  88.1692 271.9708 13.10371847217579
